{
  "type": "FeatureCollection",
  "features": [
    {
      "type": "Feature",
      "properties": {
        "norad_id": 66723,
        "name": "FLOCK 4H-20",
        "group": "last-30-days",
        "lat": 24.844898754426545,
        "lon": 62.509843733544514,
        "alt_km": 512.098451933799,
        "timestamp": "2025-12-20T07:33:49.513597+00:00",
        "meta_object_name": "FLOCK 4H-20",
        "meta_object_id": "2025-276BK",
        "meta_epoch": "2025-12-19T22:00:01.999584",
        "meta_mean_motion": 15.18271112,
        "meta_eccentricity": 0.00026531,
        "meta_inclination": 97.4435,
        "meta_ra_of_asc_node": 65.5883,
        "meta_arg_of_pericenter": 177.1355,
        "meta_mean_anomaly": 191.5312,
        "meta_ephemeris_type": 0,
        "meta_classification_type": "U",
        "meta_norad_cat_id": 66723,
        "meta_element_set_no": 999,
        "meta_rev_at_epoch": 130,
        "meta_bstar": -0.0013012546,
        "meta_mean_motion_dot": -0.00026614,
        "meta_mean_motion_ddot": 0,
        "tle_line1": "1 66723U 25276BK  25353.91668981 -.00026614  00000+0 -13013-2 0  9992",
        "tle_line2": "2 66723  97.4435  65.5883 0002653 177.1355 191.5312 15.18271112  1303"
      },
      "geometry": {
        "type": "Point",
        "coordinates": [
          62.509843733544514,
          24.844898754426545
        ]
      }
    },
    {
      "type": "Feature",
      "properties": {
        "norad_id": 66724,
        "name": "FLOCK 4H-21",
        "group": "last-30-days",
        "lat": 27.238742993376377,
        "lon": 62.11139137017164,
        "alt_km": 511.2344821596362,
        "timestamp": "2025-12-20T07:33:49.513610+00:00",
        "meta_object_name": "FLOCK 4H-21",
        "meta_object_id": "2025-276BL",
        "meta_epoch": "2025-12-19T22:00:01.999584",
        "meta_mean_motion": 15.18332764,
        "meta_eccentricity": 0.00023041,
        "meta_inclination": 97.4399,
        "meta_ra_of_asc_node": 65.5767,
        "meta_arg_of_pericenter": 174.1278,
        "meta_mean_anomaly": 196.8666,
        "meta_ephemeris_type": 0,
        "meta_classification_type": "U",
        "meta_norad_cat_id": 66724,
        "meta_element_set_no": 999,
        "meta_rev_at_epoch": 264,
        "meta_bstar": -0.001252853,
        "meta_mean_motion_dot": -0.00025674,
        "meta_mean_motion_ddot": 0,
        "tle_line1": "1 66724U 25276BL  25353.91668981 -.00025674  00000+0 -12529-2 0  9999",
        "tle_line2": "2 66724  97.4399  65.5767 0002304 174.1278 196.8666 15.18332764  2647"
      },
      "geometry": {
        "type": "Point",
        "coordinates": [
          62.11139137017164,
          27.238742993376377
        ]
      }
    },
    {
      "type": "Feature",
      "properties": {
        "norad_id": 66725,
        "name": "FLOCK 4H-22",
        "group": "last-30-days",
        "lat": -37.19485679218191,
        "lon": 71.62765622980118,
        "alt_km": 519.0101898830744,
        "timestamp": "2025-12-20T07:33:49.513621+00:00",
        "meta_object_name": "FLOCK 4H-22",
        "meta_object_id": "2025-276BM",
        "meta_epoch": "2025-12-19T22:00:01.999584",
        "meta_mean_motion": 15.1746841,
        "meta_eccentricity": 0.0001436,
        "meta_inclination": 97.4389,
        "meta_ra_of_asc_node": 65.5457,
        "meta_arg_of_pericenter": 317.8464,
        "meta_mean_anomaly": 349.3123,
        "meta_ephemeris_type": 0,
        "meta_classification_type": "U",
        "meta_norad_cat_id": 66725,
        "meta_element_set_no": 999,
        "meta_rev_at_epoch": 147,
        "meta_bstar": -0.0011159729,
        "meta_mean_motion_dot": -0.00022327,
        "meta_mean_motion_ddot": 0,
        "tle_line1": "1 66725U 25276BM  25353.91668981 -.00022327  00000+0 -11160-2 0  9992",
        "tle_line2": "2 66725  97.4389  65.5457 0001436 317.8464 349.3123 15.17468410  1471"
      },
      "geometry": {
        "type": "Point",
        "coordinates": [
          71.62765622980118,
          -37.19485679218191
        ]
      }
    },
    {
      "type": "Feature",
      "properties": {
        "norad_id": 66726,
        "name": "FLOCK 4H-23",
        "group": "last-30-days",
        "lat": -53.94209323294578,
        "lon": 76.29858533446442,
        "alt_km": 520.0247695452308,
        "timestamp": "2025-12-20T07:33:49.513630+00:00",
        "meta_object_name": "FLOCK 4H-23",
        "meta_object_id": "2025-276BN",
        "meta_epoch": "2025-12-19T22:00:01.999584",
        "meta_mean_motion": 15.17207458,
        "meta_eccentricity": 0.00031329,
        "meta_inclination": 97.4457,
        "meta_ra_of_asc_node": 65.5594,
        "meta_arg_of_pericenter": 256.284,
        "meta_mean_anomaly": 34.1447,
        "meta_ephemeris_type": 0,
        "meta_classification_type": "U",
        "meta_norad_cat_id": 66726,
        "meta_element_set_no": 999,
        "meta_rev_at_epoch": 263,
        "meta_bstar": -0.001236561,
        "meta_mean_motion_dot": -0.00024545,
        "meta_mean_motion_ddot": 0,
        "tle_line1": "1 66726U 25276BN  25353.91668981 -.00024545  00000+0 -12366-2 0  9996",
        "tle_line2": "2 66726  97.4457  65.5594 0003132 256.2840  34.1447 15.17207458  2639"
      },
      "geometry": {
        "type": "Point",
        "coordinates": [
          76.29858533446442,
          -53.94209323294578
        ]
      }
    },
    {
      "type": "Feature",
      "properties": {
        "norad_id": 66727,
        "name": "FLOCK 4H-24",
        "group": "last-30-days",
        "lat": -45.95965600711021,
        "lon": 73.72932894937256,
        "alt_km": 519.4583453452979,
        "timestamp": "2025-12-20T07:33:49.513641+00:00",
        "meta_object_name": "FLOCK 4H-24",
        "meta_object_id": "2025-276BP",
        "meta_epoch": "2025-12-19T22:00:01.999584",
        "meta_mean_motion": 15.17311576,
        "meta_eccentricity": 0.00025271,
        "meta_inclination": 97.4457,
        "meta_ra_of_asc_node": 65.5655,
        "meta_arg_of_pericenter": 277.6606,
        "meta_mean_anomaly": 20.7933,
        "meta_ephemeris_type": 0,
        "meta_classification_type": "U",
        "meta_norad_cat_id": 66727,
        "meta_element_set_no": 999,
        "meta_rev_at_epoch": 263,
        "meta_bstar": -0.0011536462,
        "meta_mean_motion_dot": -0.00022975,
        "meta_mean_motion_ddot": 0,
        "tle_line1": "1 66727U 25276BP  25353.91668981 -.00022975  00000+0 -11536-2 0  9990",
        "tle_line2": "2 66727  97.4457  65.5655 0002527 277.6606  20.7933 15.17311576  2630"
      },
      "geometry": {
        "type": "Point",
        "coordinates": [
          73.72932894937256,
          -45.95965600711021
        ]
      }
    },
    {
      "type": "Feature",
      "properties": {
        "norad_id": 66728,
        "name": "FLOCK 4H-25",
        "group": "last-30-days",
        "lat": 22.128966047432144,
        "lon": 62.92467747093725,
        "alt_km": 511.2539369734377,
        "timestamp": "2025-12-20T07:33:49.513651+00:00",
        "meta_object_name": "FLOCK 4H-25",
        "meta_object_id": "2025-276BQ",
        "meta_epoch": "2025-12-19T22:00:01.999584",
        "meta_mean_motion": 15.1819193,
        "meta_eccentricity": 0.00017034,
        "meta_inclination": 97.4409,
        "meta_ra_of_asc_node": 65.5793,
        "meta_arg_of_pericenter": 117.3281,
        "meta_mean_anomaly": 248.7155,
        "meta_ephemeris_type": 0,
        "meta_classification_type": "U",
        "meta_norad_cat_id": 66728,
        "meta_element_set_no": 999,
        "meta_rev_at_epoch": 130,
        "meta_bstar": -0.0012807745,
        "meta_mean_motion_dot": -0.00026137,
        "meta_mean_motion_ddot": 0,
        "tle_line1": "1 66728U 25276BQ  25353.91668981 -.00026137  00000+0 -12808-2 0  9998",
        "tle_line2": "2 66728  97.4409  65.5793 0001703 117.3281 248.7155 15.18191930  1307"
      },
      "geometry": {
        "type": "Point",
        "coordinates": [
          62.92467747093725,
          22.128966047432144
        ]
      }
    },
    {
      "type": "Feature",
      "properties": {
        "norad_id": 66729,
        "name": "FLOCK 4H-26",
        "group": "last-30-days",
        "lat": -61.19655133920491,
        "lon": 79.68494898073781,
        "alt_km": 519.6458963492687,
        "timestamp": "2025-12-20T07:33:49.513660+00:00",
        "meta_object_name": "FLOCK 4H-26",
        "meta_object_id": "2025-276BR",
        "meta_epoch": "2025-12-19T22:00:01.999584",
        "meta_mean_motion": 15.17135269,
        "meta_eccentricity": 0.00033601,
        "meta_inclination": 97.4409,
        "meta_ra_of_asc_node": 65.543,
        "meta_arg_of_pericenter": 275.183,
        "meta_mean_anomaly": 7.8689,
        "meta_ephemeris_type": 0,
        "meta_classification_type": "U",
        "meta_norad_cat_id": 66729,
        "meta_element_set_no": 999,
        "meta_rev_at_epoch": 130,
        "meta_bstar": -0.0012468919,
        "meta_mean_motion_dot": -0.00024698,
        "meta_mean_motion_ddot": 0,
        "tle_line1": "1 66729U 25276BR  25353.91668981 -.00024698  00000+0 -12469-2 0  9992",
        "tle_line2": "2 66729  97.4409  65.5430 0003360 275.1830   7.8689 15.17135269  1308"
      },
      "geometry": {
        "type": "Point",
        "coordinates": [
          79.68494898073781,
          -61.19655133920491
        ]
      }
    }
  ]
}